MONITOR-3 (RS58S)       
1 57180U 23091Q   26129.80839484  .00006994  00000+0  26578-3 0  9998
2 57180  97.5103 192.9924 0010792 228.8828 131.1480 15.27073438158430
MONITOR-4 (RS57S)       
1 57182U 23091S   26129.85536384  .00007344  00000+0  27810-3 0  9998
2 57182  97.5097 193.0084 0010742 229.0974 130.9335 15.27171370158444
MONITOR-2 (RS39S)       
1 57184U 23091U   26129.83465669  .00003544  00000+0  17474-3 0  9998
2 57184  97.5096 188.3707 0009872 241.5398 118.4842 15.18554717158135
SVYATOBOR 1 (RS60S)     
1 57187U 23091X   26129.83687605  .00005931  00000+0  23359-3 0  9998
2 57187  97.5108 193.4577 0008655 218.8670 141.1946 15.25962524158463
HORS 1                  
1 57188U 23091Y   26129.82492079  .00005930  00000+0  23295-3 0  9995
2 57188  97.5087 193.2132 0008132 218.4045 141.6615 15.26056397158468
VIZARD-METEO (RS38S)    
1 57189U 23091Z   26129.82587439  .00011223  00000+0  33452-3 0  9999
2 57189  97.5105 198.5773 0007369 195.7904 164.3110 15.34815691158800
SITRO-AIS 6 (CHIRKIN)   
1 57192U 23091AC  26129.80815096  .00004234  00000+0  17127-3 0  9999
2 57192  97.5088 192.6832 0010632 235.8586 124.1644 15.25227384158435
SITRO-AIS 8 (ANOKHIN)   
1 57193U 23091AD  26129.80123469  .00010005  00000+0  33503-3 0  9995
2 57193  97.5075 194.7965 0009773 227.0867 132.9555 15.31107278158570
SITRO-AIS 7 (FARTUSHNIY)
1 57194U 23091AE  26129.80368683  .00004069  00000+0  16617-3 0  9995
2 57194  97.5086 192.5229 0010459 237.0253 122.9980 15.24934548158420
AVION KALUGA 650        
1 57195U 23091AF  26129.85156292  .00003937  00000+0  18618-3 0  9998
2 57195  97.5112 189.5904 0009094 238.7058 121.3287 15.19945318158201
HORS 2                  
1 57196U 23091AG  26129.80768220  .00009019  00000+0  30421-3 0  9997
2 57196  97.5105 196.3410 0007749 209.0298 151.0513 15.30921859158652
A-SEANSAT-PG1           
1 57197U 23091AH  26129.84146042  .00011831  00000+0  34340-3 0  9993
2 57197  97.5095 198.6429 0007153 204.1770 155.9138 15.35640893158822
SITRO-AIS 10 (BURDAEV)  
1 57199U 23091AK  26129.79367406  .00013309  00000+0  36748-3 0  9994
2 57199  97.5094 199.4607 0006744 197.1405 162.9613 15.37176692158864
SITRO-AIS 9 (SHCHUKIN)  
1 57201U 23091AM  26129.80843927  .00013177  00000+0  36917-3 0  9998
2 57201  97.5093 199.2346 0006947 197.6845 162.4158 15.36723958158853
UTMN 2 (RS27S)          
1 57203U 23091AP  26129.83940198  .00008835  00000+0  29628-3 0  9997
2 57203  97.5103 196.5547 0007756 204.2500 155.8377 15.31113995158670
SITRO-AIS 12 (SMIRENNIY)
1 57204U 23091AQ  26129.80622049  .00013399  00000+0  37197-3 0  9998
2 57204  97.5106 199.6758 0006756 191.4925 168.6166 15.37007247158877
SITRO-AIS 11 (SHEFFER)  
1 57208U 23091AU  26129.82978472  .00013489  00000+0  36974-3 0  9990
2 57208  97.5103 199.9234 0006679 191.1310 168.9788 15.37399639158893
H2SAT (HEINRICH HERTZ)  
1 57213U 23093A   26129.54198889  .00000009  00000+0  00000+0 0  9994
2 57213   0.0179 236.8541 0000682 210.1599 336.1597  1.00264772 10520
KUZGTU 1 (RS47S)        
1 57217U 23091AV  26129.82421062  .00007866  00000+0  28176-3 0  9995
2 57217  97.5083 193.9368 0010179 224.9833 135.0583 15.28986024158514
QIANKUN-1               
1 57422U 23103B   26129.82900072  .00091293  53618-5  10817-3 0  9999
2 57422  96.1660 177.3188 0028951 122.9319 237.4757 16.07661747161139
FENGYUN 3F              
1 57490U 23111A   26129.85239990  .00000022  00000+0  30806-4 0  9992
2 57490  98.6862 200.5722 0001171 115.7063 244.4234 14.19932252143422
HJ-2F                   
1 57519U 23116A   26129.85799676  .00005141  00000+0  22941-3 0  9998
2 57519  97.3863 135.7611 0009202 164.1164 196.0363 15.21781123152923
XRISM                   
1 57800U 23137A   26129.77716243  .00003480  00000+0  19135-3 0  9999
2 57800  31.0018 248.3409 0007672 296.6272  63.3581 15.12145727147048
METEOR-M2 4             
1 59051U 24039A   26129.84697500  .00000015  00000+0  26348-4 0  9999
2 59051  98.6989  89.6326 0005954 284.0212  76.0304 14.22425560113812
GRBBETA                 
1 60237U 24128C   26129.85502329  .00002607  00000+0  18717-3 0  9990
2 60237  61.9914 350.7223 0045646 126.6578 233.8725 15.06324716100491
TRANSPORTER-11 OBJECT A 
1 60468U 24149A   26129.76181583  .00006461  00000+0  20974-3 0  9994
2 60468  97.3728 209.8303 0003354  27.5625 332.5794 15.32289228 96177
WARATAH SEED-1          
1 60469U 24149B   26129.72558641  .00009431  00000+0  28016-3 0  9999
2 60469  97.3685 210.2943 0002090  50.1304 310.0123 15.34988993 96217
PHISAT 2                
1 60470U 24149C   26129.80627010  .00005837  00000+0  20043-3 0  9995
2 60470  97.3754 209.2527 0002485  60.6924 299.4565 15.30513734 96127
LEMUR-2-TOMATOKECHUP    
1 60471U 24149D   26129.79140456  .00007759  00000+0  22908-3 0  9995
2 60471  97.3795 211.7658 0002214  55.9690 304.1764 15.35244617 96270
