OBJECT_NAME,OBJECT_ID,EPOCH,MEAN_MOTION,ECCENTRICITY,INCLINATION,RA_OF_ASC_NODE,ARG_OF_PERICENTER,MEAN_ANOMALY,EPHEMERIS_TYPE,CLASSIFICATION_TYPE,NORAD_CAT_ID,ELEMENT_SET_NO,REV_AT_EPOCH,BSTAR,MEAN_MOTION_DOT,MEAN_MOTION_DDOT
MONITOR-3 (RS58S),2023-091Q,2026-05-09T19:24:05.314176,15.27073438,.0010792,97.5103,192.9924,228.8828,131.1480,0,U,57180,999,15843,.26578E-3,.6994E-4,0
MONITOR-4 (RS57S),2023-091S,2026-05-09T20:31:43.435776,15.27171370,.0010742,97.5097,193.0084,229.0974,130.9335,0,U,57182,999,15844,.2781E-3,.7344E-4,0
MONITOR-2 (RS39S),2023-091U,2026-05-09T20:01:54.338016,15.18554717,.0009872,97.5096,188.3707,241.5398,118.4842,0,U,57184,999,15813,.17474E-3,.3544E-4,0
SVYATOBOR 1 (RS60S),2023-091X,2026-05-09T20:05:06.090720,15.25962524,.0008655,97.5108,193.4577,218.8670,141.1946,0,U,57187,999,15846,.23359E-3,.5931E-4,0
HORS 1,2023-091Y,2026-05-09T19:47:53.156256,15.26056397,.0008132,97.5087,193.2132,218.4045,141.6615,0,U,57188,999,15846,.23295E-3,.593E-4,0
VIZARD-METEO (RS38S),2023-091Z,2026-05-09T19:49:15.547296,15.34815691,.0007369,97.5105,198.5773,195.7904,164.3110,0,U,57189,999,15880,.33452E-3,.11223E-3,0
SITRO-AIS 6 (CHIRKIN),2023-091AC,2026-05-09T19:23:44.242944,15.25227384,.0010632,97.5088,192.6832,235.8586,124.1644,0,U,57192,999,15843,.17127E-3,.4234E-4,0
SITRO-AIS 8 (ANOKHIN),2023-091AD,2026-05-09T19:13:46.677216,15.31107278,.0009773,97.5075,194.7965,227.0867,132.9555,0,U,57193,999,15857,.33503E-3,.10005E-3,0
SITRO-AIS 7 (FARTUSHNIY),2023-091AE,2026-05-09T19:17:18.542112,15.24934548,.0010459,97.5086,192.5229,237.0253,122.9980,0,U,57194,999,15842,.16617E-3,.4069E-4,0
AVION KALUGA 650,2023-091AF,2026-05-09T20:26:15.036288,15.19945318,.0009094,97.5112,189.5904,238.7058,121.3287,0,U,57195,999,15820,.18618E-3,.3937E-4,0
HORS 2,2023-091AG,2026-05-09T19:23:03.742080,15.30921859,.0007749,97.5105,196.3410,209.0298,151.0513,0,U,57196,999,15865,.30421E-3,.9019E-4,0
A-SEANSAT-PG1,2023-091AH,2026-05-09T20:11:42.180288,15.35640893,.0007153,97.5095,198.6429,204.1770,155.9138,0,U,57197,999,15882,.3434E-3,.11831E-3,0
SITRO-AIS 10 (BURDAEV),2023-091AK,2026-05-09T19:02:53.438784,15.37176692,.0006744,97.5094,199.4607,197.1405,162.9613,0,U,57199,999,15886,.36748E-3,.13309E-3,0
SITRO-AIS 9 (SHCHUKIN),2023-091AM,2026-05-09T19:24:09.152928,15.36723958,.0006947,97.5093,199.2346,197.6845,162.4158,0,U,57201,999,15885,.36917E-3,.13177E-3,0
UTMN 2 (RS27S),2023-091AP,2026-05-09T20:08:44.331072,15.31113995,.0007756,97.5103,196.5547,204.2500,155.8377,0,U,57203,999,15867,.29628E-3,.8835E-4,0
SITRO-AIS 12 (SMIRENNIY),2023-091AQ,2026-05-09T19:20:57.450336,15.37007247,.0006756,97.5106,199.6758,191.4925,168.6166,0,U,57204,999,15887,.37197E-3,.13399E-3,0
SITRO-AIS 11 (SHEFFER),2023-091AU,2026-05-09T19:54:53.399808,15.37399639,.0006679,97.5103,199.9234,191.1310,168.9788,0,U,57208,999,15889,.36974E-3,.13489E-3,0
H2SAT (HEINRICH HERTZ),2023-093A,2026-05-09T13:00:27.840096,1.00264772,.0000682,0.0179,236.8541,210.1599,336.1597,0,U,57213,999,1052,0,.9E-7,0
KUZGTU 1 (RS47S),2023-091AV,2026-05-09T19:46:51.797568,15.28986024,.0010179,97.5083,193.9368,224.9833,135.0583,0,U,57217,999,15851,.28176E-3,.7866E-4,0
QIANKUN-1,2023-103B,2026-05-09T19:53:45.662208,16.07661747,.0028951,96.1660,177.3188,122.9319,237.4757,0,U,57422,999,16113,.10817E-3,.91293E-3,.53618E-5
FENGYUN 3F,2023-111A,2026-05-09T20:27:27.351360,14.19932252,.0001171,98.6862,200.5722,115.7063,244.4234,0,U,57490,999,14342,.30806E-4,.22E-6,0
HJ-2F,2023-116A,2026-05-09T20:35:30.920064,15.21781123,.0009202,97.3863,135.7611,164.1164,196.0363,0,U,57519,999,15292,.22941E-3,.5141E-4,0
XRISM,2023-137A,2026-05-09T18:39:06.833952,15.12145727,.0007672,31.0018,248.3409,296.6272,63.3581,0,U,57800,999,14704,.19135E-3,.348E-4,0
METEOR-M2 4,2024-039A,2026-05-09T20:19:38.640000,14.22425560,.0005954,98.6989,89.6326,284.0212,76.0304,0,U,59051,999,11381,.26348E-4,.15E-6,0
GRBBETA,2024-128C,2026-05-09T20:31:14.012256,15.06324716,.0045646,61.9914,350.7223,126.6578,233.8725,0,U,60237,999,10049,.18717E-3,.2607E-4,0
TRANSPORTER-11 OBJECT A,2024-149A,2026-05-09T18:17:00.887712,15.32289228,.0003354,97.3728,209.8303,27.5625,332.5794,0,U,60468,999,9617,.20974E-3,.6461E-4,0
WARATAH SEED-1,2024-149B,2026-05-09T17:24:50.665824,15.34988993,.000209,97.3685,210.2943,50.1304,310.0123,0,U,60469,999,9621,.28016E-3,.9431E-4,0
PHISAT 2,2024-149C,2026-05-09T19:21:01.736640,15.30513734,.0002485,97.3754,209.2527,60.6924,299.4565,0,U,60470,999,9612,.20043E-3,.5837E-4,0
LEMUR-2-TOMATOKECHUP,2024-149D,2026-05-09T18:59:37.353984,15.35244617,.0002214,97.3795,211.7658,55.9690,304.1764,0,U,60471,999,9627,.22908E-3,.7759E-4,0
